{
  "type": "FeatureCollection",
  "features": [
    {
      "type": "Feature",
      "properties": {
        "norad_id": 37971,
        "name": "COSMOS 2251 DEB",
        "group": "cosmos-2251-debris",
        "lat": 24.359236435910642,
        "lon": 67.84898911976889,
        "alt_km": 778.6629586667277,
        "timestamp": "2025-12-02T19:35:50.952504+00:00",
        "meta_object_name": "COSMOS 2251 DEB",
        "meta_object_id": "1993-036BPW",
        "meta_epoch": "2025-12-02T12:50:52.874016",
        "meta_mean_motion": 14.48350603,
        "meta_eccentricity": 0.0068622,
        "meta_inclination": 73.993,
        "meta_ra_of_asc_node": 60.9089,
        "meta_arg_of_pericenter": 201.4648,
        "meta_mean_anomaly": 158.3632,
        "meta_ephemeris_type": 0,
        "meta_classification_type": "U",
        "meta_norad_cat_id": 37971,
        "meta_element_set_no": 999,
        "meta_rev_at_epoch": 60530,
        "meta_bstar": 0.0025913,
        "meta_mean_motion_dot": 9.973e-05,
        "meta_mean_motion_ddot": 0,
        "tle_line1": "1 37971U 93036BPW 25336.53533419  .00009973  00000+0  25913-2 0  9999",
        "tle_line2": "2 37971  73.9930  60.9089 0068622 201.4648 158.3632 14.48350603605307"
      },
      "geometry": {
        "type": "Point",
        "coordinates": [
          67.84898911976889,
          24.359236435910642
        ]
      }
    },
    {
      "type": "Feature",
      "properties": {
        "norad_id": 37975,
        "name": "COSMOS 2251 DEB",
        "group": "cosmos-2251-debris",
        "lat": 24.749076505918477,
        "lon": -8.872717107726592,
        "alt_km": 600.295005379845,
        "timestamp": "2025-12-02T19:35:50.952515+00:00",
        "meta_object_name": "COSMOS 2251 DEB",
        "meta_object_id": "1993-036BQA",
        "meta_epoch": "2025-11-29T10:05:48.736608",
        "meta_mean_motion": 14.74991313,
        "meta_eccentricity": 0.00977788,
        "meta_inclination": 74.0026,
        "meta_ra_of_asc_node": 350.1763,
        "meta_arg_of_pericenter": 342.2584,
        "meta_mean_anomaly": 17.5181,
        "meta_ephemeris_type": 0,
        "meta_classification_type": "U",
        "meta_norad_cat_id": 37975,
        "meta_element_set_no": 999,
        "meta_rev_at_epoch": 69549,
        "meta_bstar": 0.0028756754,
        "meta_mean_motion_dot": 0.00020929,
        "meta_mean_motion_ddot": 0,
        "tle_line1": "1 37975U 93036BQA 25333.42070297  .00020929  00000+0  28757-2 0  9991",
        "tle_line2": "2 37975  74.0026 350.1763 0097778 342.2584  17.5181 14.74991313695491"
      },
      "geometry": {
        "type": "Point",
        "coordinates": [
          -8.872717107726592,
          24.749076505918477
        ]
      }
    },
    {
      "type": "Feature",
      "properties": {
        "norad_id": 37978,
        "name": "COSMOS 2251 DEB",
        "group": "cosmos-2251-debris",
        "lat": 20.343377057452223,
        "lon": 117.73522667848941,
        "alt_km": 347.2930133045602,
        "timestamp": "2025-12-02T19:35:50.952536+00:00",
        "meta_object_name": "COSMOS 2251 DEB",
        "meta_object_id": "1993-036BQD",
        "meta_epoch": "2025-11-19T05:08:53.100672",
        "meta_mean_motion": 15.61137081,
        "meta_eccentricity": 0.00148985,
        "meta_inclination": 74.0238,
        "meta_ra_of_asc_node": 142.2198,
        "meta_arg_of_pericenter": 140.9849,
        "meta_mean_anomaly": 219.2448,
        "meta_ephemeris_type": 0,
        "meta_classification_type": "U",
        "meta_norad_cat_id": 37978,
        "meta_element_set_no": 999,
        "meta_rev_at_epoch": 8032,
        "meta_bstar": 0.0043958825,
        "meta_mean_motion_dot": 0.0039117,
        "meta_mean_motion_ddot": 0,
        "tle_line1": "1 37978U 93036BQD 25323.21450348  .00391170  00000+0  43959-2 0  9999",
        "tle_line2": "2 37978  74.0238 142.2198 0014898 140.9849 219.2448 15.61137081 80328"
      },
      "geometry": {
        "type": "Point",
        "coordinates": [
          117.73522667848941,
          20.343377057452223
        ]
      }
    },
    {
      "type": "Feature",
      "properties": {
        "norad_id": 37985,
        "name": "COSMOS 2251 DEB",
        "group": "cosmos-2251-debris",
        "lat": 73.45236915967594,
        "lon": -1.4423814395745453,
        "alt_km": 754.2301873623237,
        "timestamp": "2025-12-02T19:35:50.952547+00:00",
        "meta_object_name": "COSMOS 2251 DEB",
        "meta_object_id": "1993-036BQL",
        "meta_epoch": "2025-11-30T03:38:35.089728",
        "meta_mean_motion": 14.35476198,
        "meta_eccentricity": 0.00203975,
        "meta_inclination": 74.025,
        "meta_ra_of_asc_node": 288.8408,
        "meta_arg_of_pericenter": 55.5438,
        "meta_mean_anomaly": 304.7638,
        "meta_ephemeris_type": 0,
        "meta_classification_type": "U",
        "meta_norad_cat_id": 37985,
        "meta_element_set_no": 999,
        "meta_rev_at_epoch": 64736,
        "meta_bstar": 6.4630742e-05,
        "meta_mean_motion_dot": 1.6e-06,
        "meta_mean_motion_ddot": 0,
        "tle_line1": "1 37985U 93036BQL 25334.15179502  .00000160  00000+0  64631-4 0  9990",
        "tle_line2": "2 37985  74.0250 288.8408 0020397  55.5438 304.7638 14.35476198647366"
      },
      "geometry": {
        "type": "Point",
        "coordinates": [
          -1.4423814395745453,
          73.45236915967594
        ]
      }
    },
    {
      "type": "Feature",
      "properties": {
        "norad_id": 37988,
        "name": "COSMOS 2251 DEB",
        "group": "cosmos-2251-debris",
        "lat": -21.70343272392853,
        "lon": 36.66671312866378,
        "alt_km": 682.7103684037511,
        "timestamp": "2025-12-02T19:35:50.952558+00:00",
        "meta_object_name": "COSMOS 2251 DEB",
        "meta_object_id": "1993-036BQP",
        "meta_epoch": "2025-12-01T20:48:48.432672",
        "meta_mean_motion": 14.68693612,
        "meta_eccentricity": 0.00633975,
        "meta_inclination": 74.0639,
        "meta_ra_of_asc_node": 45.0298,
        "meta_arg_of_pericenter": 86.1947,
        "meta_mean_anomaly": 274.6469,
        "meta_ephemeris_type": 0,
        "meta_classification_type": "U",
        "meta_norad_cat_id": 37988,
        "meta_element_set_no": 999,
        "meta_rev_at_epoch": 23236,
        "meta_bstar": 0.00094923241,
        "meta_mean_motion_dot": 5.671e-05,
        "meta_mean_motion_ddot": 0,
        "tle_line1": "1 37988U 93036BQP 25335.86722723  .00005671  00000+0  94923-3 0  9999",
        "tle_line2": "2 37988  74.0639  45.0298 0063397  86.1947 274.6469 14.68693612232367"
      },
      "geometry": {
        "type": "Point",
        "coordinates": [
          36.66671312866378,
          -21.70343272392853
        ]
      }
    },
    {
      "type": "Feature",
      "properties": {
        "norad_id": 37993,
        "name": "COSMOS 2251 DEB",
        "group": "cosmos-2251-debris",
        "lat": 68.77685423768062,
        "lon": -126.60431622759614,
        "alt_km": 701.7413615945916,
        "timestamp": "2025-12-02T19:35:50.952568+00:00",
        "meta_object_name": "COSMOS 2251 DEB",
        "meta_object_id": "1993-036BQU",
        "meta_epoch": "2025-12-01T21:52:04.124640",
        "meta_mean_motion": 14.59713379,
        "meta_eccentricity": 0.0022073,
        "meta_inclination": 74.0242,
        "meta_ra_of_asc_node": 187.5873,
        "meta_arg_of_pericenter": 277.3102,
        "meta_mean_anomaly": 82.5554,
        "meta_ephemeris_type": 0,
        "meta_classification_type": "U",
        "meta_norad_cat_id": 37993,
        "meta_element_set_no": 999,
        "meta_rev_at_epoch": 65159,
        "meta_bstar": 0.0013360965,
        "meta_mean_motion_dot": 6.369e-05,
        "meta_mean_motion_ddot": 0,
        "tle_line1": "1 37993U 93036BQU 25335.91115885  .00006369  00000+0  13361-2 0  9997",
        "tle_line2": "2 37993  74.0242 187.5873 0022073 277.3102  82.5554 14.59713379651591"
      },
      "geometry": {
        "type": "Point",
        "coordinates": [
          -126.60431622759614,
          68.77685423768062
        ]
      }
    },
    {
      "type": "Feature",
      "properties": {
        "norad_id": 37994,
        "name": "COSMOS 2251 DEB",
        "group": "cosmos-2251-debris",
        "lat": 14.357395436649604,
        "lon": 109.81085845123765,
        "alt_km": 774.2206229500416,
        "timestamp": "2025-12-02T19:35:50.952579+00:00",
        "meta_object_name": "COSMOS 2251 DEB",
        "meta_object_id": "1993-036BQV",
        "meta_epoch": "2025-12-02T07:09:36.169920",
        "meta_mean_motion": 14.39581665,
        "meta_eccentricity": 0.0022437,
        "meta_inclination": 74.0357,
        "meta_ra_of_asc_node": 294.9693,
        "meta_arg_of_pericenter": 16.6567,
        "meta_mean_anomaly": 343.5319,
        "meta_ephemeris_type": 0,
        "meta_classification_type": "U",
        "meta_norad_cat_id": 37994,
        "meta_element_set_no": 999,
        "meta_rev_at_epoch": 76914,
        "meta_bstar": 0.00050617,
        "meta_mean_motion_dot": 1.559e-05,
        "meta_mean_motion_ddot": 0,
        "tle_line1": "1 37994U 93036BQV 25336.29833530  .00001559  00000+0  50617-3 0  9996",
        "tle_line2": "2 37994  74.0357 294.9693 0022437  16.6567 343.5319 14.39581665769144"
      },
      "geometry": {
        "type": "Point",
        "coordinates": [
          109.81085845123765,
          14.357395436649604
        ]
      }
    }
  ]
}